KUIPER-00028            
1 63741U 25088T   26061.47117292  .00012885  00000+0  17160-2 0  9992
2 63741  51.9011 124.9749 0000504  71.1758 288.9259 14.79933233 46999
KUIPER-00029            
1 63742U 25088U   26061.42243989  .00006663  00000+0  82739-3 0  9993
2 63742  51.9017 122.9005 0000721 102.0941 258.0104 14.83579183 46541
KUIPER-00030            
1 63743U 25088V   26061.62113552 -.00000404  00000+0 -23616-4 0  9997
2 63743  51.9008 141.8030 0010575  49.6600 310.5285 14.79960916 46587
KUIPER-00031            
1 63744U 25088W   26061.42953448  .00006764  00000+0  83963-3 0  9995
2 63744  51.8996 127.9819 0002348 123.6071 236.5118 14.83574537 46472
KUIPER-00032            
1 63745U 25088X   26061.38691849  .00019139  00000+0  52934-3 0  9999
2 63745  51.8697  59.5282 0005241  87.0558 273.1028 15.37025649 48422
KUIPER-00033            
1 63746U 25088Y   26061.54782765  .00006909  00000+0  86132-3 0  9994
2 63746  51.9012 157.6120 0000737  44.1966 315.9057 14.83364967 46556
KUIPER-00034            
1 63747U 25088Z   26061.36860835  .00005541  00000+0  69376-3 0  9992
2 63747  51.9012 120.7502 0001703 332.5432  27.5442 14.83525494 46736
KUIPER-00035            
1 63748U 25088AA  26061.83335647 -.00021979  00000+0 -26454-2 0  9997
2 63748  51.8992 144.3467 0003918  54.4604  67.7955 14.83215838  2764
KUIPER-00037            
1 63749U 25088AB  26061.61836992 -.00000549  00000+0 -43124-4 0  9998
2 63749  51.9003 144.3297 0000676  39.3334 320.7678 14.79871354 47264
KUIPER-00038            
1 63750U 25088AC  26061.56708407  .00004156  00000+0  57410-3 0  9991
2 63750  51.9029 129.5873 0000773  86.4790 273.6261 14.79909892 46460
KUIPER-00039            
1 64500U 25134A   26061.80987691  .00004105  00000+0  56737-3 0  9993
2 64500  51.9000 263.5154 0001027  61.6499 298.4567 14.79916185 39052
KUIPER-00040            
1 64501U 25134B   26061.79734417  .00000459  00000+0  89557-4 0  9993
2 64501  51.8995 274.7106 0014022 243.1207 116.8323 14.79928940 38895
KUIPER-00041            
1 64502U 25134C   26061.80050374  .00003886  00000+0  55430-3 0  9998
2 64502  51.8985 276.0926 0007089 241.9402 118.0844 14.78691298 38870
KUIPER-00042            
1 64503U 25134D   26061.79996254 -.00007068  00000+0 -89968-3 0  9994
2 64503  51.8984 272.0592 0007351 256.9690 103.0452 14.79874462 38935
KUIPER-00043            
1 64504U 25134E   26061.79318478  .00004405  00000+0  55395-3 0  9998
2 64504  51.8997 263.7019 0000915 310.7756  49.3128 14.83776371 39053
KUIPER-00044            
1 64505U 25134F   26061.79458578  .00014535  00000+0  19283-2 0  9995
2 64505  51.8980 277.0818 0008090 251.1505 108.8580 14.79986401 38866
KUIPER-00046            
1 64506U 25134G   26061.79892273  .00004087  00000+0  56485-3 0  9997
2 64506  51.8971 273.5236 0000741 107.6008 252.5035 14.79931941 38917
